#aV2010  8  7  0  0   .00000000      96 DD+AD WGS84 FIT  NGA
## 1595 518400.00000000   900.00000000 55415  .0000000000000
+   31     1  2  3  4  5  6  7  8  9 10 11 12 13 14 15 16 17
+         18 19 20 21 22 23 24 26 27 28 29 30 31 32  0  0  0
+          0  0  0  0  0  0  0  0  0  0  0  0  0  0  0  0  0
+          0  0  0  0  0  0  0  0  0  0  0  0  0  0  0  0  0
+          0  0  0  0  0  0  0  0  0  0  0  0  0  0  0  0  0
++         0  0  0  0  0  0  0  0  0  0  0  0  0  0  0  0  0
++         0  0  0  0  0  0  0  0  0  0  0  0  0  0  0  0  0
++         0  0  0  0  0  0  0  0  0  0  0  0  0  0  0  0  0
++         0  0  0  0  0  0  0  0  0  0  0  0  0  0  0  0  0
++         0  0  0  0  0  0  0  0  0  0  0  0  0  0  0  0  0
%c cc cc ccc ccc cccc cccc cccc cccc ccccc ccccc ccccc ccccc
%c cc cc ccc ccc cccc cccc cccc cccc ccccc ccccc ccccc ccccc
%f  0.0000000  0.000000000  0.00000000000  0.000000000000000
%f  0.0000000  0.000000000  0.00000000000  0.000000000000000
%i    0    0    0    0      0      0      0      0         0
%i    0    0    0    0      0      0      0      0         0
/*      NGA, ST. LOUIS,MO.                                  
/*   EPHEMERIS COMPUTED FROM  3 DAYS OF DATA                
/* CCCCCCCCCCCCCCCCCCCCCCCCCCCCCCCCCCCCCCCCCCCCCCCCCCCCCCCCC
/* CCCCCCCCCCCCCCCCCCCCCCCCCCCCCCCCCCCCCCCCCCCCCCCCCCCCCCCCC
*  2010  8  7 12 15   .00000000                                                 
P  1    875.955139 -21705.574204 -15310.446258   -149.388343                    
V  1  11735.965983 -15413.580760  22821.001089      -.040430                    
P  2  13547.646295  23130.864400   -720.747052    278.978638                    
V  2  -2260.686415   2292.713383  30954.017781       .029168                    
P  3 -17795.615841 -11057.148653 -16897.649807    591.867696                    
V  3  20434.712103  -3974.526162 -19016.163195       .047961                    
P  4   3698.155197  23695.668390  10840.620809    141.423730                    
V  4  -9667.677807 -10925.295877  27101.987590       .081423                    
P  5   8835.815115  13766.070249 -20921.676062    -21.496807                    
V  5 -14600.577868  22210.923779   8538.253790      -.039809                    
P  6 -12738.555006 -13605.076976 -18809.433452    543.274830                    
V  6  24239.139491  -2174.992646 -14542.955979      -.147068                    
P  7 -11389.094479  10154.784256 -21733.541486     -1.908598                    
V  7 -13338.854547 -24114.763225  -4460.623284      -.000771                    
P  8  -3311.319983  19828.698371 -17071.135394      6.360117                    
V  8 -10230.897102 -19313.758370 -20981.827902       .001833                    
P  9  18159.549767  10291.406258  15891.565723     22.907166                    
V  9   9099.481101  19163.590134 -22031.865290       .022955                    
P 10  -1613.715299  21906.363598 -14861.183379    -49.064159                    
V 10 -12226.838881  14373.132308  23145.172845      -.010623                    
P 11 -20647.178894  -3093.128433  16335.310520    -80.861846                    
V 11 -12133.616577 -17860.997718 -18041.613307      -.025828                    
P 12  17781.069394  -3269.329304  19440.345905    -85.581391                    
V 12 -12144.068200  21457.611274  14894.173863       .038695                    
P 13 -22897.780650   5776.477526 -12341.349223    300.246065                    
V 13 -15163.901130  -2969.250854  27000.037661      -.007936                    
P 14   4196.357141 -14343.276771  22090.672263     75.981025                    
V 14  27533.145644   2454.581756  -3796.614383       .039094                    
P 15  24593.761060   6095.781379  -8159.096722   -227.549288                    
V 15 -10390.229922   2608.585856 -29191.485696       .057915                    
P 16  -4040.106295 -17706.883418 -19246.407730    -96.967946                    
V 16  14605.679661 -19801.469315  15395.592712      -.035584                    
P 17  -7518.066246  14366.238983  21104.191316    165.494952                    
V 17 -26513.699228  -2232.952664  -8174.718353       .016341                    
P 18  17340.280304 -18886.681653  -5826.578444     85.556411                    
V 18  -1064.980473   8685.408257 -30246.888297       .022846                    
P 19 -24577.317879  -7710.140724  -7116.083964    -55.738854                    
V 19   9204.323082  -1491.903005 -29763.177387      -.030115                    
P 20 -18403.843752   4933.609426  18351.082305     52.446558                    
V 20  10138.337415 -21477.165396  15877.650901      -.004586                    
P 21  10039.940744 -13241.297223 -20245.179437    -79.347412                    
V 21  13626.651441  23063.722902  -8808.356493      -.026719                    
P 22  10624.022118 -23690.283978   5519.223384    165.794906                    
V 22   6759.867119  -3754.429897 -30151.665371      -.007442                    
P 23 -26605.457471    780.527955  -2615.964004    359.596925                    
V 23  -3176.419539  -2423.925846  31459.956188      -.016978                    
P 24  -9599.040525 -24769.434132  -2686.436000    310.880129                    
V 24   4168.746796   1881.495889 -31070.737974       .031643                    
P 26  18544.635511  12064.334785 -15568.447311    -94.361315                    
V 26 -18536.572555   -886.881353 -23222.803873      -.064720                    
P 27  18941.389867  13579.560301  13588.584549    177.475776                    
V 27   7075.258581  14464.933640 -25428.607943       .036129                    
P 28 -12544.746732  23037.100139   3484.831865     -8.071676                    
V 28  -4364.240870   1730.761052 -31766.689884       .012361                    
P 29  23368.149198  -6161.785211 -10883.399948    140.162440                    
V 29  13783.657005   3351.016017  27518.586788       .028448                    
P 30  17973.031984 -15402.386889  11598.948786    267.303316                    
V 30  -5213.170974  14706.880401  26719.739897       .032856                    
P 31  -5859.186758 -24191.230182   9217.885060    -19.000670                    
V 31   7308.935749   9076.270803  29279.184745       .027877                    
P 32 -15938.065201  -3557.459418  21217.929928    -55.804659                    
V 32  14987.133617 -21570.031992   8111.710577      -.088348                    
EOF
